{"fetched_at":"2026-07-18T06:27:55.876Z","source":"https://celestrak.org/NORAD/elements/gp.php?NAME=ASTROCAST&FORMAT=JSON","constellation":"astrocast","records":[{"OBJECT_NAME":"ASTROCAST 0.1","OBJECT_ID":"2018-099AS","EPOCH":"2026-07-17T21:57:05.461920","CLASSIFICATION_TYPE":"U","MEAN_MOTION":15.51583342,"ECCENTRICITY":0.00054816,"INCLINATION":97.4367,"RA_OF_ASC_NODE":278.416,"ARG_OF_PERICENTER":121.8864,"MEAN_ANOMALY":238.2922,"EPHEMERIS_TYPE":0,"NORAD_CAT_ID":43798,"ELEMENT_SET_NO":999,"REV_AT_EPOCH":41919,"BSTAR":0.00041349022,"MEAN_MOTION_DOT":0.00024464,"MEAN_MOTION_DDOT":0},{"OBJECT_NAME":"ASTROCAST-0402","OBJECT_ID":"2023-001DE","EPOCH":"2026-07-17T19:20:03.519456","CLASSIFICATION_TYPE":"U","MEAN_MOTION":15.29047789,"ECCENTRICITY":0.00065659,"INCLINATION":97.5583,"RA_OF_ASC_NODE":292.4726,"ARG_OF_PERICENTER":127.6424,"MEAN_ANOMALY":232.5412,"EPHEMERIS_TYPE":0,"NORAD_CAT_ID":55109,"ELEMENT_SET_NO":999,"REV_AT_EPOCH":14921,"BSTAR":0.00025272664,"MEAN_MOTION_DOT":0.00007054,"MEAN_MOTION_DDOT":0},{"OBJECT_NAME":"ASTROCAST-0401","OBJECT_ID":"2023-001DF","EPOCH":"2026-07-17T16:34:59.872800","CLASSIFICATION_TYPE":"U","MEAN_MOTION":15.28600753,"ECCENTRICITY":0.00095362,"INCLINATION":97.5567,"RA_OF_ASC_NODE":292.1591,"ARG_OF_PERICENTER":101.4177,"MEAN_ANOMALY":258.8134,"EPHEMERIS_TYPE":0,"NORAD_CAT_ID":55110,"ELEMENT_SET_NO":999,"REV_AT_EPOCH":19586,"BSTAR":0.00034707033,"MEAN_MOTION_DOT":0.00009593,"MEAN_MOTION_DDOT":0},{"OBJECT_NAME":"ASTROCAST-0403","OBJECT_ID":"2023-001DG","EPOCH":"2026-07-17T16:50:02.470272","CLASSIFICATION_TYPE":"U","MEAN_MOTION":15.32425343,"ECCENTRICITY":0.0004951,"INCLINATION":97.5623,"RA_OF_ASC_NODE":293.5069,"ARG_OF_PERICENTER":203.1182,"MEAN_ANOMALY":156.9837,"EPHEMERIS_TYPE":0,"NORAD_CAT_ID":55111,"ELEMENT_SET_NO":999,"REV_AT_EPOCH":14923,"BSTAR":0.00039207614,"MEAN_MOTION_DOT":0.00012205,"MEAN_MOTION_DDOT":0},{"OBJECT_NAME":"ASTROCAST-0404","OBJECT_ID":"2023-001DH","EPOCH":"2026-07-17T12:17:43.324800","CLASSIFICATION_TYPE":"U","MEAN_MOTION":15.28844416,"ECCENTRICITY":0.0005286,"INCLINATION":97.5671,"RA_OF_ASC_NODE":293.1097,"ARG_OF_PERICENTER":232.9132,"MEAN_ANOMALY":127.1624,"EPHEMERIS_TYPE":0,"NORAD_CAT_ID":55112,"ELEMENT_SET_NO":999,"REV_AT_EPOCH":14916,"BSTAR":0.00015147,"MEAN_MOTION_DOT":0.00004168,"MEAN_MOTION_DDOT":0}]}
