ASTROCAST 0.1           
1 43798U 18099AS  26198.91464655  .00024464  00000+0  41349-3 0  9997
2 43798  97.4367 278.4160 0005481 121.8864 238.2922 15.51583342419194
ASTROCAST-0402          
1 55109U 23001DE  26198.80559629  .00007054  00000+0  25273-3 0  9993
2 55109  97.5583 292.4726 0006565 127.6424 232.5412 15.29047789149217
ASTROCAST-0401          
1 55110U 23001DF  26198.69097075  .00009593  00000+0  34707-3 0  9996
2 55110  97.5567 292.1591 0009536 101.4177 258.8134 15.28600753195863
ASTROCAST-0403          
1 55111U 23001DG  26198.70141748  .00012205  00000+0  39208-3 0  9991
2 55111  97.5623 293.5069 0004951 203.1182 156.9837 15.32425343149237
ASTROCAST-0404          
1 55112U 23001DH  26198.51230700  .00004168  00000+0  15147-3 0  9993
2 55112  97.5671 293.1097 0005286 232.9132 127.1624 15.28844416149162
